{
"type": "FeatureCollection",
"name": "Down_Escalators",
"crs": { "type": "name", "properties": { "name": "urn:ogc:def:crs:OGC:1.3:CRS84" } },
"features": [
{ "type": "Feature", "properties": { "id": null, "From_To": "1_to_G", "From": "1", "To": "G", "from_n_id": "n_1_0083_E", "to_n_id": "n_G_0034_E", "bidir": 0, "accessible": 0 }, "geometry": { "type": "MultiLineString", "coordinates": [ [ [ 103.654254792551754, 1.514111908914748 ], [ 103.654353040508866, 1.514017846411236 ] ] ] } },
{ "type": "Feature", "properties": { "id": null, "From_To": "G_to_B1", "From": "G", "To": "B1", "from_n_id": "n_G_0033_E", "to_n_id": "B1_E", "bidir": 0, "accessible": 0 }, "geometry": { "type": "MultiLineString", "coordinates": [ [ [ 103.654325179966634, 1.513988373803336 ], [ 103.654226932007674, 1.514082436306529 ] ] ] } },
{ "type": "Feature", "properties": { "id": null, "From_To": "1_to_G", "From": "1", "To": "G", "from_n_id": "n_1_0074_E", "to_n_id": "n_G_0028_E", "bidir": 0, "accessible": 0 }, "geometry": { "type": "MultiLineString", "coordinates": [ [ [ 103.654624207768592, 1.513938230479096 ], [ 103.65453009818421, 1.513840001546174 ] ] ] } },
{ "type": "Feature", "properties": { "id": null, "From_To": "2_to_1", "From": "2", "To": "1", "from_n_id": "n_2_0190_E", "to_n_id": "n_1_0075_E", "bidir": 0, "accessible": 0 }, "geometry": { "type": "MultiLineString", "coordinates": [ [ [ 103.654544725638331, 1.51382599729308 ], [ 103.654638850119142, 1.513924241776052 ] ] ] } },
{ "type": "Feature", "properties": { "id": null, "From_To": "1_to_G", "From": "1", "To": "G", "from_n_id": "n_1_0093_E", "to_n_id": "n_G_0037_E", "bidir": 0, "accessible": 0 }, "geometry": { "type": "MultiLineString", "coordinates": [ [ [ 103.654859734864388, 1.514296260456401 ], [ 103.65476153309686, 1.514390278383157 ], [ 103.654761517015572, 1.514390293779306 ] ] ] } },
{ "type": "Feature", "properties": { "id": null, "From_To": "2_to_1", "From": "2", "To": "1", "from_n_id": "n_2_0181_E", "to_n_id": "n_1_0094_E", "bidir": 0, "accessible": 0 }, "geometry": { "type": "MultiLineString", "coordinates": [ [ [ 103.654859734864388, 1.514296260456401 ], [ 103.65476153309686, 1.514390278383157 ], [ 103.654761517015572, 1.514390293779306 ] ] ] } },
{ "type": "Feature", "properties": { "id": null, "From_To": "3_to_2", "From": "3", "To": "2", "from_n_id": "n_3_0065_E", "to_n_id": "n_2_0182_E", "bidir": 0, "accessible": 0 }, "geometry": { "type": "MultiLineString", "coordinates": [ [ [ 103.654859734864388, 1.514296260456401 ], [ 103.65476153309686, 1.514390278383157 ], [ 103.654761517015572, 1.514390293779306 ] ] ] } },
{ "type": "Feature", "properties": { "id": null, "From_To": "3_to_2", "From": "3", "To": "2", "from_n_id": "n_3_0079_E", "to_n_id": "n_2_0191_E", "bidir": 0, "accessible": 0 }, "geometry": { "type": "MultiLineString", "coordinates": [ [ [ 103.654624222665362, 1.51393824602794 ], [ 103.654624207768592, 1.513938230479096 ], [ 103.654530384685231, 1.513839727251499 ] ] ] } },
{ "type": "Feature", "properties": { "id": null, "From_To": "4_to_3", "From": "4", "To": "3", "from_n_id": "n_4_0079_E", "to_n_id": "n_3_0080_E", "bidir": 0, "accessible": 0 }, "geometry": { "type": "MultiLineString", "coordinates": [ [ [ 103.654544725638331, 1.51382599729308 ], [ 103.654638850119142, 1.513924241776052 ] ] ] } },
{ "type": "Feature", "properties": { "id": null, "From_To": "2_to_1", "From": "2", "To": "1", "from_n_id": "n_2_0163_E", "to_n_id": "n_1_0084_E", "bidir": 0, "accessible": 0 }, "geometry": { "type": "MultiLineString", "coordinates": [ [ [ 103.65425574966342, 1.514112921406459 ], [ 103.654353644334137, 1.514018485174279 ] ] ] } },
{ "type": "Feature", "properties": { "id": null, "From_To": "3_to_2", "From": "3", "To": "2", "from_n_id": "n_3_0074_E", "to_n_id": "n_2_0160_E", "bidir": 0, "accessible": 0 }, "geometry": { "type": "MultiLineString", "coordinates": [ [ [ 103.65425574966342, 1.514112921406459 ], [ 103.654353644334137, 1.514018485174279 ] ] ] } },
{ "type": "Feature", "properties": { "id": null, "From_To": "2_to_1", "From": "2", "To": "1", "from_n_id": "n_2_0173_E", "to_n_id": "n_1_0089_E", "bidir": 0, "accessible": 0 }, "geometry": { "type": "MultiLineString", "coordinates": [ [ [ 103.654447836978804, 1.514443874014171 ], [ 103.654353998981435, 1.514345355232595 ] ] ] } },
{ "type": "Feature", "properties": { "id": null, "From_To": "3_to_2", "From": "3", "To": "2", "from_n_id": "n_3_0070_E", "to_n_id": "n_2_0174_E", "bidir": 0, "accessible": 0 }, "geometry": { "type": "MultiLineString", "coordinates": [ [ [ 103.654368339938031, 1.514331625275167 ], [ 103.654462464436591, 1.51442986976286 ] ] ] } },
{ "type": "Feature", "properties": { "id": null, "From_To": "4_to_3", "From": "4", "To": "3", "from_n_id": "n_4_0076_E", "to_n_id": "n_3_0069_E", "bidir": 0, "accessible": 0 }, "geometry": { "type": "MultiLineString", "coordinates": [ [ [ 103.654447836978804, 1.514443874014171 ], [ 103.654353727700254, 1.514345667109062 ] ] ] } },
{ "type": "Feature", "properties": { "id": null, "From_To": "2_to_1", "From": "2", "To": "1", "from_n_id": "n_2_0155_E", "to_n_id": "n_1_0069_E", "bidir": 0, "accessible": 0 }, "geometry": { "type": "MultiLineString", "coordinates": [ [ [ 103.655407484956569, 1.514005321477492 ], [ 103.655389648158945, 1.513910878030659 ] ] ] } },
{ "type": "Feature", "properties": { "id": null, "From_To": "3_to_2", "From": "3", "To": "2", "from_n_id": "n_3_0086_E", "to_n_id": "n_2_0152_E", "bidir": 0, "accessible": 0 }, "geometry": { "type": "MultiLineString", "coordinates": [ [ [ 103.655417766395956, 1.514038384119791 ], [ 103.655389648158945, 1.513910878030659 ] ] ] } },
{ "type": "Feature", "properties": { "id": null, "From_To": "5_to_4", "From": "5", "To": "4", "from_n_id": "n_5_0010_E", "to_n_id": "n_4_0070_E", "bidir": 0, "accessible": 0 }, "geometry": { "type": "MultiLineString", "coordinates": [ [ [ 103.655639252939991, 1.514253018188047 ], [ 103.655620435307156, 1.514161145047037 ] ] ] } },
{ "type": "Feature", "properties": { "id": null, "From_To": "4_to_3", "From": "4", "To": "3", "from_n_id": "n_4_0075_E", "to_n_id": "n_3_0085_E", "bidir": 0, "accessible": 0 }, "geometry": { "type": "MultiLineString", "coordinates": [ [ [ 103.655417766395956, 1.514038384119791 ], [ 103.655390897476735, 1.513912984274774 ] ] ] } },
{ "type": "Feature", "properties": { "id": null, "From_To": "4_to_3", "From": "4", "To": "3", "from_n_id": "n_4_0073_E", "to_n_id": "n_3_0082_E", "bidir": 0, "accessible": 0 }, "geometry": { "type": "MultiLineString", "coordinates": [ [ [ 103.65528434269693, 1.513713247235822 ], [ 103.655223108896678, 1.513651279195196 ] ] ] } },
{ "type": "Feature", "properties": { "id": null, "From_To": "3_to_2", "From": "3", "To": "2", "from_n_id": "n_3_0084_E", "to_n_id": "n_2_0153_E", "bidir": 0, "accessible": 0 }, "geometry": { "type": "MultiLineString", "coordinates": [ [ [ 103.655303385333966, 1.513735069456205 ], [ 103.65522128955152, 1.513647434261429 ] ] ] } },
{ "type": "Feature", "properties": { "id": null, "From_To": "2_to_1", "From": "2", "To": "1", "from_n_id": "n_2_0156_E", "to_n_id": "n_1_0070_E", "bidir": 0, "accessible": 0 }, "geometry": { "type": "MultiLineString", "coordinates": [ [ [ 103.655184311740896, 1.513765838988818 ], [ 103.655247364889178, 1.513831651963256 ] ] ] } }
]
}
