{
"type": "FeatureCollection",
"name": "Up_Escalators",
"crs": { "type": "name", "properties": { "name": "urn:ogc:def:crs:OGC:1.3:CRS84" } },
"features": [
{ "type": "Feature", "properties": { "id": 1, "From_To": "G_to_1", "From": "G", "To": "1", "from_n_id": "n_G_0029_E", "to_n_id": "n_1_0077_E", "bidir": 0, "accessible": 0 }, "geometry": { "type": "MultiLineString", "coordinates": [ [ [ 103.654638850119142, 1.513924241776052 ], [ 103.654544725638331, 1.51382599729308 ] ] ] } },
{ "type": "Feature", "properties": { "id": 2, "From_To": "1_to_2", "From": "1", "To": "2", "from_n_id": "n_1_0076_E", "to_n_id": "n_2_0192_E", "bidir": 0, "accessible": 0 }, "geometry": { "type": "MultiLineString", "coordinates": [ [ [ 103.65453009818421, 1.513840001546174 ], [ 103.654624207768592, 1.513938230479096 ] ] ] } },
{ "type": "Feature", "properties": { "id": 3, "From_To": "B1_to_G", "From": "B1", "To": "G", "from_n_id": "B1_E", "to_n_id": "n_G_0032_E", "bidir": 0, "accessible": 0 }, "geometry": { "type": "MultiLineString", "coordinates": [ [ [ 103.654235789359134, 1.514091806161971 ], [ 103.654334037316261, 1.513997743658056 ] ] ] } },
{ "type": "Feature", "properties": { "id": 4, "From_To": "G_to_1", "From": "G", "To": "1", "from_n_id": "n_G_0031_E", "to_n_id": "n_1_0081_E", "bidir": 0, "accessible": 0 }, "geometry": { "type": "MultiLineString", "coordinates": [ [ [ 103.654343509435861, 1.514007763851632 ], [ 103.654241480842387, 1.514097826964913 ] ] ] } },
{ "type": "Feature", "properties": { "id": null, "From_To": "B1_to_G", "From": "B1", "To": "G", "from_n_id": "B1_E", "to_n_id": "n_G_0038_E", "bidir": 0, "accessible": 0 }, "geometry": { "type": "MultiLineString", "coordinates": [ [ [ 103.654775755743444, 1.514405417418663 ], [ 103.654775770044381, 1.51440540362294 ], [ 103.654873650402862, 1.51431098116453 ] ] ] } },
{ "type": "Feature", "properties": { "id": null, "From_To": "1_to_2", "From": "1", "To": "2", "from_n_id": "n_1_0095_E", "to_n_id": "n_2_0183_E", "bidir": 0, "accessible": 0 }, "geometry": { "type": "MultiLineString", "coordinates": [ [ [ 103.654775755743444, 1.514405417418663 ], [ 103.654775770044381, 1.51440540362294 ], [ 103.654873650402862, 1.51431098116453 ] ] ] } },
{ "type": "Feature", "properties": { "id": null, "From_To": "2_to_3", "From": "2", "To": "3", "from_n_id": "n_2_0184_E", "to_n_id": "n_3_0066_E", "bidir": 0, "accessible": 0 }, "geometry": { "type": "MultiLineString", "coordinates": [ [ [ 103.654775755743444, 1.514405417418663 ], [ 103.654775770044381, 1.51440540362294 ], [ 103.654873650402862, 1.51431098116453 ] ] ] } },
{ "type": "Feature", "properties": { "id": null, "From_To": "2_to_3", "From": "2", "To": "3", "from_n_id": "n_2_0193_E", "to_n_id": "n_3_0078_E", "bidir": 0, "accessible": 0 }, "geometry": { "type": "MultiLineString", "coordinates": [ [ [ 103.654638850119142, 1.513924241776052 ], [ 103.654544725638331, 1.51382599729308 ] ] ] } },
{ "type": "Feature", "properties": { "id": null, "From_To": "3_to_4", "From": "3", "To": "4", "from_n_id": "n_3_0077_E", "to_n_id": "n_4_0080_E", "bidir": 0, "accessible": 0 }, "geometry": { "type": "MultiLineString", "coordinates": [ [ [ 103.65453009818421, 1.513840001546174 ], [ 103.654624195159627, 1.513938238268123 ] ] ] } },
{ "type": "Feature", "properties": { "id": null, "From_To": "1_to_2", "From": "1", "To": "2", "from_n_id": "n_1_0082_E", "to_n_id": "n_2_0162_E", "bidir": 0, "accessible": 0 }, "geometry": { "type": "MultiLineString", "coordinates": [ [ [ 103.654339728801361, 1.514003764461935 ], [ 103.654241480842387, 1.514097826964913 ] ] ] } },
{ "type": "Feature", "properties": { "id": null, "From_To": "2_to_3", "From": "2", "To": "3", "from_n_id": "n_2_0161_E", "to_n_id": "n_3_0073_E", "bidir": 0, "accessible": 0 }, "geometry": { "type": "MultiLineString", "coordinates": [ [ [ 103.654339728801361, 1.514003764461935 ], [ 103.654241480842387, 1.514097826964913 ] ] ] } },
{ "type": "Feature", "properties": { "id": null, "From_To": "1_to_2", "From": "1", "To": "2", "from_n_id": "n_1_0088_E", "to_n_id": "n_2_0175_E", "bidir": 0, "accessible": 0 }, "geometry": { "type": "MultiLineString", "coordinates": [ [ [ 103.654462464436591, 1.514429869762859 ], [ 103.654368339938074, 1.514331625275167 ] ] ] } },
{ "type": "Feature", "properties": { "id": null, "From_To": "2_to_3", "From": "2", "To": "3", "from_n_id": "n_2_0176_E", "to_n_id": "n_3_0071_E", "bidir": 0, "accessible": 0 }, "geometry": { "type": "MultiLineString", "coordinates": [ [ [ 103.654353998981435, 1.514345355232595 ], [ 103.654447836978804, 1.514443874014171 ] ] ] } },
{ "type": "Feature", "properties": { "id": null, "From_To": "3_to_4", "From": "3", "To": "4", "from_n_id": "n_3_0103_E", "to_n_id": "n_4_0077_E", "bidir": 0, "accessible": 0 }, "geometry": { "type": "MultiLineString", "coordinates": [ [ [ 103.6543390859363, 1.514359634734822 ], [ 103.654433195214821, 1.514457841639931 ] ] ] } },
{ "type": "Feature", "properties": { "id": null, "From_To": "2_to_3", "From": "2", "To": "3", "from_n_id": "n_2_0159_E", "to_n_id": "n_3_0087_E", "bidir": 0, "accessible": 0 }, "geometry": { "type": "MultiLineString", "coordinates": [ [ [ 103.655630511867443, 1.51413711413632 ], [ 103.655657483191362, 1.514262486997882 ] ] ] } },
{ "type": "Feature", "properties": { "id": null, "From_To": "3_to_4", "From": "3", "To": "4", "from_n_id": "n_3_0088_E", "to_n_id": "n_4_0072_E", "bidir": 0, "accessible": 0 }, "geometry": { "type": "MultiLineString", "coordinates": [ [ [ 103.655630511867443, 1.514137114136319 ], [ 103.655657483191362, 1.514262486997882 ] ] ] } },
{ "type": "Feature", "properties": { "id": null, "From_To": "4_to_5", "From": "4", "To": "5", "from_n_id": "n_4_0071_E", "to_n_id": "n_5_0011_E", "bidir": 0, "accessible": 0 }, "geometry": { "type": "MultiLineString", "coordinates": [ [ [ 103.655630316295088, 1.514137156180199 ], [ 103.655661205118051, 1.514260126807504 ] ] ] } },
{ "type": "Feature", "properties": { "id": null, "From_To": "3_to_4", "From": "3", "To": "4", "from_n_id": "n_3_0081_E", "to_n_id": "n_4_0074_E", "bidir": 0, "accessible": 0 }, "geometry": { "type": "MultiLineString", "coordinates": [ [ [ 103.655210135734777, 1.513663699748528 ], [ 103.655273710833484, 1.513723426150423 ] ] ] } },
{ "type": "Feature", "properties": { "id": null, "From_To": "2_to_3", "From": "2", "To": "3", "from_n_id": "n_2_0154_E", "to_n_id": "n_3_0083_E", "bidir": 0, "accessible": 0 }, "geometry": { "type": "MultiLineString", "coordinates": [ [ [ 103.655210699109873, 1.51365757351919 ], [ 103.655290412173528, 1.513747489921438 ] ] ] } },
{ "type": "Feature", "properties": { "id": null, "From_To": "1_to_2", "From": "1", "To": "2", "from_n_id": "n_1_0071_E", "to_n_id": "n_2_0157_E", "bidir": 0, "accessible": 0 }, "geometry": { "type": "MultiLineString", "coordinates": [ [ [ 103.655258393095295, 1.513821093591982 ], [ 103.655195339947014, 1.513755280617221 ] ] ] } },
{ "type": "Feature", "properties": { "id": null, "From_To": "G_to_1", "From": "G", "To": "1", "from_n_id": "n_G_0039_E", "to_n_id": "n_1_0096_E", "bidir": 0, "accessible": 0 }, "geometry": { "type": "MultiLineString", "coordinates": [ [ [ 103.654775755743444, 1.514405417418663 ], [ 103.654775770044381, 1.51440540362294 ], [ 103.654873650402862, 1.51431098116453 ] ] ] } }
]
}
