{
"type": "FeatureCollection",
"name": "vertical_nodes",
"crs": { "type": "name", "properties": { "name": "urn:ogc:def:crs:OGC:1.3:CRS84" } },
"features": [
{ "type": "Feature", "properties": { "nodeID": "n_1_0074_E", "Type": "Escalator", "FloorLevel": "1", "layer": "Level1_Nodes_Final" }, "geometry": { "type": "Point", "coordinates": [ 103.654624207768592, 1.513938230479096 ] } },
{ "type": "Feature", "properties": { "nodeID": "n_1_0095_E", "Type": "Escalator", "FloorLevel": "1", "layer": "Level1_Nodes_Final" }, "geometry": { "type": "Point", "coordinates": [ 103.654775755743444, 1.514405417418663 ] } },
{ "type": "Feature", "properties": { "nodeID": "n_1_0088_E", "Type": "Escalator", "FloorLevel": "1", "layer": "Level1_Nodes_Final" }, "geometry": { "type": "Point", "coordinates": [ 103.654462464436591, 1.514429869762859 ] } },
{ "type": "Feature", "properties": { "nodeID": "n_1_0075_E", "Type": "Escalator", "FloorLevel": "1", "layer": "Level1_Nodes_Final" }, "geometry": { "type": "Point", "coordinates": [ 103.654638850119142, 1.513924241776052 ] } },
{ "type": "Feature", "properties": { "nodeID": "n_1_0094_E", "Type": "Escalator", "FloorLevel": "1", "layer": "Level1_Nodes_Final" }, "geometry": { "type": "Point", "coordinates": [ 103.654761517015572, 1.514390293779306 ] } },
{ "type": "Feature", "properties": { "nodeID": "n_1_0081_E", "Type": "Escalator", "FloorLevel": "1", "layer": "Level1_Nodes_Final" }, "geometry": { "type": "Point", "coordinates": [ 103.654241480842387, 1.514097826964913 ] } },
{ "type": "Feature", "properties": { "nodeID": "n_1_0006_L", "Type": "Lift", "FloorLevel": "1", "layer": "Level1_Nodes_Final" }, "geometry": { "type": "Point", "coordinates": [ 103.655553209574649, 1.513759433355243 ] } },
{ "type": "Feature", "properties": { "nodeID": "n_1_0012_L", "Type": "Lift", "FloorLevel": "1", "layer": "Level1_Nodes_Final" }, "geometry": { "type": "Point", "coordinates": [ 103.655215764728624, 1.514099673014217 ] } },
{ "type": "Feature", "properties": { "nodeID": "n_1_0043_L", "Type": "Lift", "FloorLevel": "1", "layer": "Level1_Nodes_Final" }, "geometry": { "type": "Point", "coordinates": [ 103.654307477687027, 1.514490447979066 ] } },
{ "type": "Feature", "properties": { "nodeID": "n_1_0066_L", "Type": "Lift", "FloorLevel": "1", "layer": "Level1_Nodes_Final" }, "geometry": { "type": "Point", "coordinates": [ 103.654598956630963, 1.513961314150357 ] } },
{ "type": "Feature", "properties": { "nodeID": "n_1_0069_E", "Type": "Escalator", "FloorLevel": "1", "layer": "Level1_Nodes_Final" }, "geometry": { "type": "Point", "coordinates": [ 103.655386501765435, 1.513892709368099 ] } },
{ "type": "Feature", "properties": { "nodeID": "n_1_0076_E", "Type": "Escalator", "FloorLevel": "1", "layer": "Level1_Nodes_Final" }, "geometry": { "type": "Point", "coordinates": [ 103.65453009818421, 1.513840001546174 ] } },
{ "type": "Feature", "properties": { "nodeID": "n_1_0077_E", "Type": "Escalator", "FloorLevel": "1", "layer": "Level1_Nodes_Final" }, "geometry": { "type": "Point", "coordinates": [ 103.654544725638331, 1.51382599729308 ] } },
{ "type": "Feature", "properties": { "nodeID": "n_1_0082_E", "Type": "Escalator", "FloorLevel": "1", "layer": "Level1_Nodes_Final" }, "geometry": { "type": "Point", "coordinates": [ 103.654339925932263, 1.514003598583944 ] } },
{ "type": "Feature", "properties": { "nodeID": "n_1_0083_E", "Type": "Escalator", "FloorLevel": "1", "layer": "Level1_Nodes_Final" }, "geometry": { "type": "Point", "coordinates": [ 103.65425479255174, 1.514111908914748 ] } },
{ "type": "Feature", "properties": { "nodeID": "n_1_0084_E", "Type": "Escalator", "FloorLevel": "1", "layer": "Level1_Nodes_Final" }, "geometry": { "type": "Point", "coordinates": [ 103.654353644334137, 1.514018485174279 ] } },
{ "type": "Feature", "properties": { "nodeID": "n_1_0089_E", "Type": "Escalator", "FloorLevel": "1", "layer": "Level1_Nodes_Final" }, "geometry": { "type": "Point", "coordinates": [ 103.654353998981435, 1.514345355232595 ] } },
{ "type": "Feature", "properties": { "nodeID": "n_1_0093_E", "Type": "Escalator", "FloorLevel": "1", "layer": "Level1_Nodes_Final" }, "geometry": { "type": "Point", "coordinates": [ 103.654858996709152, 1.514295479590596 ] } },
{ "type": "Feature", "properties": { "nodeID": "n_1_0096_E", "Type": "Escalator", "FloorLevel": "1", "layer": "Level1_Nodes_Final" }, "geometry": { "type": "Point", "coordinates": [ 103.654873650402862, 1.51431098116453 ] } },
{ "type": "Feature", "properties": { "nodeID": "n_1_0071_E", "Type": "Escalator", "FloorLevel": "1", "layer": "Level1_Nodes_Final" }, "geometry": { "type": "Point", "coordinates": [ 103.655258393095295, 1.513821093591982 ] } },
{ "type": "Feature", "properties": { "nodeID": "n_1_0070_E", "Type": "Escalator", "FloorLevel": "1", "layer": "Level1_Nodes_Final" }, "geometry": { "type": "Point", "coordinates": [ 103.655247364889178, 1.513831651963256 ] } },
{ "type": "Feature", "properties": { "nodeID": "n_1_0058_L", "Type": "Lift", "FloorLevel": "1", "layer": "Level1_Nodes_Final" }, "geometry": { "type": "Point", "coordinates": [ 103.654038284816565, 1.51413268422649 ] } },
{ "type": "Feature", "properties": { "nodeID": "n_2_0190_E", "Type": "Escalator", "FloorLevel": "2", "layer": "Level2_Nodes_Final" }, "geometry": { "type": "Point", "coordinates": [ 103.654544652230044, 1.513826067573804 ] } },
{ "type": "Feature", "properties": { "nodeID": "n_2_0184_E", "Type": "Escalator", "FloorLevel": "2", "layer": "Level2_Nodes_Final" }, "geometry": { "type": "Point", "coordinates": [ 103.654775755743444, 1.514405417418663 ] } },
{ "type": "Feature", "properties": { "nodeID": "n_2_0174_E", "Type": "Escalator", "FloorLevel": "2", "layer": "Level2_Nodes_Final" }, "geometry": { "type": "Point", "coordinates": [ 103.654462464436591, 1.51442986976286 ] } },
{ "type": "Feature", "properties": { "nodeID": "n_2_0152_E", "Type": "Escalator", "FloorLevel": "2", "layer": "Level2_Nodes_Final" }, "geometry": { "type": "Point", "coordinates": [ 103.655389648158945, 1.513910878030659 ] } },
{ "type": "Feature", "properties": { "nodeID": "n_2_0155_E", "Type": "Escalator", "FloorLevel": "2", "layer": "Level2_Nodes_Final" }, "geometry": { "type": "Point", "coordinates": [ 103.655407484956569, 1.514005321477492 ] } },
{ "type": "Feature", "properties": { "nodeID": "n_2_0173_E", "Type": "Escalator", "FloorLevel": "2", "layer": "Level2_Nodes_Final" }, "geometry": { "type": "Point", "coordinates": [ 103.654447836978804, 1.514443874014171 ] } },
{ "type": "Feature", "properties": { "nodeID": "n_2_0161_E", "Type": "Escalator", "FloorLevel": "2", "layer": "Level2_Nodes_Final" }, "geometry": { "type": "Point", "coordinates": [ 103.654339728801347, 1.514003764461935 ] } },
{ "type": "Feature", "properties": { "nodeID": "n_2_0162_E", "Type": "Escalator", "FloorLevel": "2", "layer": "Level2_Nodes_Final" }, "geometry": { "type": "Point", "coordinates": [ 103.654241480842387, 1.514097826964913 ] } },
{ "type": "Feature", "properties": { "nodeID": "n_2_0182_E", "Type": "Escalator", "FloorLevel": "2", "layer": "Level2_Nodes_Final" }, "geometry": { "type": "Point", "coordinates": [ 103.654761517015572, 1.514390293779306 ] } },
{ "type": "Feature", "properties": { "nodeID": "n_2_0027_L", "Type": "Lift", "FloorLevel": "2", "layer": "Level2_Nodes_Final" }, "geometry": { "type": "Point", "coordinates": [ 103.655587131784415, 1.514319613979092 ] } },
{ "type": "Feature", "properties": { "nodeID": "n_2_0048_L", "Type": "Lift", "FloorLevel": "2", "layer": "Level2_Nodes_Final" }, "geometry": { "type": "Point", "coordinates": [ 103.65521579475363, 1.514099644374076 ] } },
{ "type": "Feature", "properties": { "nodeID": "n_2_0088_L", "Type": "Lift", "FloorLevel": "2", "layer": "Level2_Nodes_Final" }, "geometry": { "type": "Point", "coordinates": [ 103.654307477687027, 1.514490447979065 ] } },
{ "type": "Feature", "properties": { "nodeID": "n_2_0096_L", "Type": "Lift", "FloorLevel": "2", "layer": "Level2_Nodes_Final" }, "geometry": { "type": "Point", "coordinates": [ 103.654038284816565, 1.51413268422649 ] } },
{ "type": "Feature", "properties": { "nodeID": "n_2_0105_L", "Type": "Lift", "FloorLevel": "2", "layer": "Level2_Nodes_Final" }, "geometry": { "type": "Point", "coordinates": [ 103.654598956630963, 1.513961314150356 ] } },
{ "type": "Feature", "properties": { "nodeID": "n_2_0141_L", "Type": "Lift", "FloorLevel": "2", "layer": "Level2_Nodes_Final" }, "geometry": { "type": "Point", "coordinates": [ 103.655553209574606, 1.513759433355243 ] } },
{ "type": "Feature", "properties": { "nodeID": "n_2_0159_E", "Type": "Escalator", "FloorLevel": "2", "layer": "Level2_Nodes_Final" }, "geometry": { "type": "Point", "coordinates": [ 103.655630511867443, 1.51413711413632 ] } },
{ "type": "Feature", "properties": { "nodeID": "n_2_0160_E", "Type": "Escalator", "FloorLevel": "2", "layer": "Level2_Nodes_Final" }, "geometry": { "type": "Point", "coordinates": [ 103.654353644334137, 1.514018485174279 ] } },
{ "type": "Feature", "properties": { "nodeID": "n_2_0163_E", "Type": "Escalator", "FloorLevel": "2", "layer": "Level2_Nodes_Final" }, "geometry": { "type": "Point", "coordinates": [ 103.65425574966342, 1.514112921406459 ] } },
{ "type": "Feature", "properties": { "nodeID": "n_2_0175_E", "Type": "Escalator", "FloorLevel": "2", "layer": "Level2_Nodes_Final" }, "geometry": { "type": "Point", "coordinates": [ 103.654368339938074, 1.514331625275167 ] } },
{ "type": "Feature", "properties": { "nodeID": "n_2_0176_E", "Type": "Escalator", "FloorLevel": "2", "layer": "Level2_Nodes_Final" }, "geometry": { "type": "Point", "coordinates": [ 103.654353998981435, 1.514345355232595 ] } },
{ "type": "Feature", "properties": { "nodeID": "n_2_0181_E", "Type": "Escalator", "FloorLevel": "2", "layer": "Level2_Nodes_Final" }, "geometry": { "type": "Point", "coordinates": [ 103.654859833576836, 1.514296364880452 ] } },
{ "type": "Feature", "properties": { "nodeID": "n_2_0183_E", "Type": "Escalator", "FloorLevel": "2", "layer": "Level2_Nodes_Final" }, "geometry": { "type": "Point", "coordinates": [ 103.654873650402862, 1.51431098116453 ] } },
{ "type": "Feature", "properties": { "nodeID": "n_2_0157_E", "Type": "Escalator", "FloorLevel": "2", "layer": "Level2_Nodes_Final" }, "geometry": { "type": "Point", "coordinates": [ 103.655195339947014, 1.513755280617221 ] } },
{ "type": "Feature", "properties": { "nodeID": "n_2_0156_E", "Type": "Escalator", "FloorLevel": "2", "layer": "Level2_Nodes_Final" }, "geometry": { "type": "Point", "coordinates": [ 103.655184311740896, 1.513765838988818 ] } },
{ "type": "Feature", "properties": { "nodeID": "n_2_0153_E", "Type": "Escalator", "FloorLevel": "2", "layer": "Level2_Nodes_Final" }, "geometry": { "type": "Point", "coordinates": [ 103.65522128955152, 1.513647434261429 ] } },
{ "type": "Feature", "properties": { "nodeID": "n_2_0154_E", "Type": "Escalator", "FloorLevel": "2", "layer": "Level2_Nodes_Final" }, "geometry": { "type": "Point", "coordinates": [ 103.655210699109873, 1.51365757351919 ] } },
{ "type": "Feature", "properties": { "nodeID": "n_2_0191_E", "Type": "Escalator", "FloorLevel": "2", "layer": "Level2_Nodes_Final" }, "geometry": { "type": "Point", "coordinates": [ 103.654530384685231, 1.513839727251499 ] } },
{ "type": "Feature", "properties": { "nodeID": "n_2_0192_E", "Type": "Escalator", "FloorLevel": "2", "layer": "Level2_Nodes_Final" }, "geometry": { "type": "Point", "coordinates": [ 103.654624207768592, 1.513938230479096 ] } },
{ "type": "Feature", "properties": { "nodeID": "n_2_0193_E", "Type": "Escalator", "FloorLevel": "2", "layer": "Level2_Nodes_Final" }, "geometry": { "type": "Point", "coordinates": [ 103.654638850119142, 1.513924241776052 ] } },
{ "type": "Feature", "properties": { "nodeID": "n_3_0079_E", "Type": "Escalator", "FloorLevel": "3", "layer": "Level3_Nodes_Final" }, "geometry": { "type": "Point", "coordinates": [ 103.654624195159627, 1.513938238268123 ] } },
{ "type": "Feature", "properties": { "nodeID": "n_3_0080_E", "Type": "Escalator", "FloorLevel": "3", "layer": "Level3_Nodes_Final" }, "geometry": { "type": "Point", "coordinates": [ 103.654638850119142, 1.513924241776052 ] } },
{ "type": "Feature", "properties": { "nodeID": "n_3_0066_E", "Type": "Escalator", "FloorLevel": "3", "layer": "Level3_Nodes_Final" }, "geometry": { "type": "Point", "coordinates": [ 103.654873650402862, 1.51431098116453 ] } },
{ "type": "Feature", "properties": { "nodeID": "n_3_0067_E", "Type": "Escalator", "FloorLevel": "3", "layer": "Level3_Nodes_Final" }, "geometry": { "type": "Point", "coordinates": [ 103.654775402458625, 1.51440504369233 ] } },
{ "type": "Feature", "properties": { "nodeID": "n_3_0071_E", "Type": "Escalator", "FloorLevel": "3", "layer": "Level3_Nodes_Final" }, "geometry": { "type": "Point", "coordinates": [ 103.654447836978804, 1.514443874014171 ] } },
{ "type": "Feature", "properties": { "nodeID": "n_3_0074_E", "Type": "Escalator", "FloorLevel": "3", "layer": "Level3_Nodes_Final" }, "geometry": { "type": "Point", "coordinates": [ 103.654233129997493, 1.514134289688681 ] } },
{ "type": "Feature", "properties": { "nodeID": "n_3_0076_E", "Type": "Escalator", "FloorLevel": "3", "layer": "Level3_Nodes_Final" }, "geometry": { "type": "Point", "coordinates": [ 103.65433137795462, 1.514040227184754 ] } },
{ "type": "Feature", "properties": { "nodeID": "n_3_0084_E", "Type": "Escalator", "FloorLevel": "3", "layer": "Level3_Nodes_Final" }, "geometry": { "type": "Point", "coordinates": [ 103.655303385333966, 1.513735069456205 ] } },
{ "type": "Feature", "properties": { "nodeID": "n_3_0083_E", "Type": "Escalator", "FloorLevel": "3", "layer": "Level3_Nodes_Final" }, "geometry": { "type": "Point", "coordinates": [ 103.655290412173528, 1.513747489921438 ] } },
{ "type": "Feature", "properties": { "nodeID": "n_3_0018_L", "Type": "Lift", "FloorLevel": "3", "layer": "Level3_Nodes_Final" }, "geometry": { "type": "Point", "coordinates": [ 103.655741824483655, 1.513956304072166 ] } },
{ "type": "Feature", "properties": { "nodeID": "n_3_0014_L", "Type": "Lift", "FloorLevel": "3", "layer": "Level3_Nodes_Final" }, "geometry": { "type": "Point", "coordinates": [ 103.654038284816565, 1.51413268422649 ] } },
{ "type": "Feature", "properties": { "nodeID": "n_3_0081_E", "Type": "Escalator", "FloorLevel": "3", "layer": "Level3_Nodes_Final" }, "geometry": { "type": "Point", "coordinates": [ 103.655210135734777, 1.513663699748528 ] } },
{ "type": "Feature", "properties": { "nodeID": "n_3_0082_E", "Type": "Escalator", "FloorLevel": "3", "layer": "Level3_Nodes_Final" }, "geometry": { "type": "Point", "coordinates": [ 103.655223108896678, 1.513651279195196 ] } },
{ "type": "Feature", "properties": { "nodeID": "n_3_0017_L", "Type": "Lift", "FloorLevel": "3", "layer": "Level3_Nodes_Final" }, "geometry": { "type": "Point", "coordinates": [ 103.655553209574592, 1.513759433355223 ] } },
{ "type": "Feature", "properties": { "nodeID": "n_3_0019_L", "Type": "Lift", "FloorLevel": "3", "layer": "Level3_Nodes_Final" }, "geometry": { "type": "Point", "coordinates": [ 103.655587131458205, 1.514319613638614 ] } },
{ "type": "Feature", "properties": { "nodeID": "n_3_0087_E", "Type": "Escalator", "FloorLevel": "3", "layer": "Level3_Nodes_Final" }, "geometry": { "type": "Point", "coordinates": [ 103.655657483191362, 1.514262486997882 ] } },
{ "type": "Feature", "properties": { "nodeID": "n_3_0088_E", "Type": "Escalator", "FloorLevel": "3", "layer": "Level3_Nodes_Final" }, "geometry": { "type": "Point", "coordinates": [ 103.655630511867443, 1.514137114136319 ] } },
{ "type": "Feature", "properties": { "nodeID": "n_3_0086_E", "Type": "Escalator", "FloorLevel": "3", "layer": "Level3_Nodes_Final" }, "geometry": { "type": "Point", "coordinates": [ 103.655417766395956, 1.514038384119791 ] } },
{ "type": "Feature", "properties": { "nodeID": "n_3_0013_L", "Type": "Lift", "FloorLevel": "3", "layer": "Level3_Nodes_Final" }, "geometry": { "type": "Point", "coordinates": [ 103.654598956630977, 1.513961314150355 ] } },
{ "type": "Feature", "properties": { "nodeID": "n_3_0015_L", "Type": "Lift", "FloorLevel": "3", "layer": "Level3_Nodes_Final" }, "geometry": { "type": "Point", "coordinates": [ 103.654307477687027, 1.514490447979066 ] } },
{ "type": "Feature", "properties": { "nodeID": "n_3_0016_L", "Type": "Lift", "FloorLevel": "3", "layer": "Level3_Nodes_Final" }, "geometry": { "type": "Point", "coordinates": [ 103.655215747827398, 1.514099598040463 ] } },
{ "type": "Feature", "properties": { "nodeID": "n_3_0068_E", "Type": "Escalator", "FloorLevel": "3", "layer": "Level3_Nodes_Final" }, "geometry": { "type": "Point", "coordinates": [ 103.654761214775419, 1.514390035093873 ] } },
{ "type": "Feature", "properties": { "nodeID": "n_3_0069_E", "Type": "Escalator", "FloorLevel": "3", "layer": "Level3_Nodes_Final" }, "geometry": { "type": "Point", "coordinates": [ 103.654353727700268, 1.514345667109062 ] } },
{ "type": "Feature", "properties": { "nodeID": "n_3_0070_E", "Type": "Escalator", "FloorLevel": "3", "layer": "Level3_Nodes_Final" }, "geometry": { "type": "Point", "coordinates": [ 103.654368926934211, 1.514331111637309 ] } },
{ "type": "Feature", "properties": { "nodeID": "n_3_0075_E", "Type": "Escalator", "FloorLevel": "3", "layer": "Level3_Nodes_Final" }, "geometry": { "type": "Point", "coordinates": [ 103.65431746242183, 1.514025506472411 ] } },
{ "type": "Feature", "properties": { "nodeID": "n_3_0085_E", "Type": "Escalator", "FloorLevel": "3", "layer": "Level3_Nodes_Final" }, "geometry": { "type": "Point", "coordinates": [ 103.65539089747675, 1.513912984274774 ] } },
{ "type": "Feature", "properties": { "nodeID": "n_3_0078_E", "Type": "Escalator", "FloorLevel": "3", "layer": "Level3_Nodes_Final" }, "geometry": { "type": "Point", "coordinates": [ 103.654544725638345, 1.51382599729308 ] } },
{ "type": "Feature", "properties": { "nodeID": "n_3_0073_E", "Type": "Escalator", "FloorLevel": "3", "layer": "Level3_Nodes_Final" }, "geometry": { "type": "Point", "coordinates": [ 103.654219214462856, 1.514119568975389 ] } },
{ "type": "Feature", "properties": { "nodeID": "n_3_0072_E", "Type": "Escalator", "FloorLevel": "3", "layer": "Level3_Nodes_Final" }, "geometry": { "type": "Point", "coordinates": [ 103.654462490655192, 1.514429893143896 ] } },
{ "type": "Feature", "properties": { "nodeID": "n_3_0065_E", "Type": "Escalator", "FloorLevel": "3", "layer": "Level3_Nodes_Final" }, "geometry": { "type": "Point", "coordinates": [ 103.654859734864402, 1.514296260456401 ] } },
{ "type": "Feature", "properties": { "nodeID": "n_3_0103_E", "Type": "Escalator", "FloorLevel": "3", "layer": "Level3_Nodes_Final" }, "geometry": { "type": "Point", "coordinates": [ 103.6543390859363, 1.514359634734823 ] } },
{ "type": "Feature", "properties": { "nodeID": "n_3_0077_E", "Type": "Escalator", "FloorLevel": "3", "layer": "Level3_Nodes_Final" }, "geometry": { "type": "Point", "coordinates": [ 103.65453009818421, 1.513840001546174 ] } },
{ "type": "Feature", "properties": { "nodeID": "n_4_0010_L", "Type": "Lift", "FloorLevel": "4", "layer": "Level4_Nodes_Final" }, "geometry": { "type": "Point", "coordinates": [ 103.65430747832491, 1.514490447368325 ] } },
{ "type": "Feature", "properties": { "nodeID": "n_4_0080_E", "Type": "Escalator", "FloorLevel": "4", "layer": "Level4_Nodes_Final" }, "geometry": { "type": "Point", "coordinates": [ 103.654624195159627, 1.513938238268123 ] } },
{ "type": "Feature", "properties": { "nodeID": "n_4_0083_L", "Type": "Lift", "FloorLevel": "4", "layer": "Level4_Nodes_Final" }, "geometry": { "type": "Point", "coordinates": [ 103.654599633281194, 1.513962020418743 ] } },
{ "type": "Feature", "properties": { "nodeID": "n_4_0069_L", "Type": "Lift", "FloorLevel": "4", "layer": "Level4_Nodes_Final" }, "geometry": { "type": "Point", "coordinates": [ 103.655215764728695, 1.514099673014217 ] } },
{ "type": "Feature", "properties": { "nodeID": "n_4_0071_E", "Type": "Escalator", "FloorLevel": "4", "layer": "Level4_Nodes_Final" }, "geometry": { "type": "Point", "coordinates": [ 103.655630316295088, 1.514137156180199 ] } },
{ "type": "Feature", "properties": { "nodeID": "n_4_0070_E", "Type": "Escalator", "FloorLevel": "4", "layer": "Level4_Nodes_Final" }, "geometry": { "type": "Point", "coordinates": [ 103.655620435307156, 1.514161145047037 ] } },
{ "type": "Feature", "properties": { "nodeID": "n_4_0077_E", "Type": "Escalator", "FloorLevel": "4", "layer": "Level4_Nodes_Final" }, "geometry": { "type": "Point", "coordinates": [ 103.654433195214821, 1.514457841639931 ] } },
{ "type": "Feature", "properties": { "nodeID": "n_4_0076_E", "Type": "Escalator", "FloorLevel": "4", "layer": "Level4_Nodes_Final" }, "geometry": { "type": "Point", "coordinates": [ 103.654447836978804, 1.514443874014171 ] } },
{ "type": "Feature", "properties": { "nodeID": "n_4_0079_E", "Type": "Escalator", "FloorLevel": "4", "layer": "Level4_Nodes_Final" }, "geometry": { "type": "Point", "coordinates": [ 103.654544725638331, 1.51382599729308 ] } },
{ "type": "Feature", "properties": { "nodeID": "n_4_0073_E", "Type": "Escalator", "FloorLevel": "4", "layer": "Level4_Nodes_Final" }, "geometry": { "type": "Point", "coordinates": [ 103.65528434269693, 1.513713247235822 ] } },
{ "type": "Feature", "properties": { "nodeID": "n_4_0072_E", "Type": "Escalator", "FloorLevel": "4", "layer": "Level4_Nodes_Final" }, "geometry": { "type": "Point", "coordinates": [ 103.655657483191362, 1.514262486997882 ] } },
{ "type": "Feature", "properties": { "nodeID": "n_4_0075_E", "Type": "Escalator", "FloorLevel": "4", "layer": "Level4_Nodes_Final" }, "geometry": { "type": "Point", "coordinates": [ 103.655417765382452, 1.514038379369047 ] } },
{ "type": "Feature", "properties": { "nodeID": "n_4_0074_E", "Type": "Escalator", "FloorLevel": "4", "layer": "Level4_Nodes_Final" }, "geometry": { "type": "Point", "coordinates": [ 103.655273710833484, 1.513723426150423 ] } },
{ "type": "Feature", "properties": { "nodeID": "n_4_0063_L", "Type": "Lift", "FloorLevel": "4", "layer": "Level4_Nodes_Final" }, "geometry": { "type": "Point", "coordinates": [ 103.655553209574606, 1.513759433355243 ] } },
{ "type": "Feature", "properties": { "nodeID": "n_4_0041_L", "Type": "Lift", "FloorLevel": "4", "layer": "Level4_Nodes_Final" }, "geometry": { "type": "Point", "coordinates": [ 103.6555871315866, 1.51431961351569 ] } },
{ "type": "Feature", "properties": { "nodeID": "n_5_0001_L", "Type": "Lift", "FloorLevel": "5", "layer": "Level5_Nodes_Final" }, "geometry": { "type": "Point", "coordinates": [ 103.655553209574606, 1.513759433355243 ] } },
{ "type": "Feature", "properties": { "nodeID": "n_5_0009_L", "Type": "Lift", "FloorLevel": "5", "layer": "Level5_Nodes_Final" }, "geometry": { "type": "Point", "coordinates": [ 103.6555871315866, 1.51431961351569 ] } },
{ "type": "Feature", "properties": { "nodeID": "n_5_0010_E", "Type": "Escalator", "FloorLevel": "5", "layer": "Level5_Nodes_Final" }, "geometry": { "type": "Point", "coordinates": [ 103.655639252939991, 1.514253018188047 ] } },
{ "type": "Feature", "properties": { "nodeID": "n_5_0011_E", "Type": "Escalator", "FloorLevel": "5", "layer": "Level5_Nodes_Final" }, "geometry": { "type": "Point", "coordinates": [ 103.655661205118051, 1.514260126807504 ] } },
{ "type": "Feature", "properties": { "nodeID": "n_G_0037_E", "Type": "Escalator", "FloorLevel": "G", "layer": "LevelG_Nodes_Final" }, "geometry": { "type": "Point", "coordinates": [ 103.65476153309686, 1.514390278383157 ] } },
{ "type": "Feature", "properties": { "nodeID": "n_G_0003_L", "Type": "Lift", "FloorLevel": "G", "layer": "LevelG_Nodes_Final" }, "geometry": { "type": "Point", "coordinates": [ 103.654598956630963, 1.513961314150356 ] } },
{ "type": "Feature", "properties": { "nodeID": "n_G_0024_L", "Type": "Lift", "FloorLevel": "G", "layer": "LevelG_Nodes_Final" }, "geometry": { "type": "Point", "coordinates": [ 103.654038284816565, 1.514132684226489 ] } },
{ "type": "Feature", "properties": { "nodeID": "n_G_0028_E", "Type": "Escalator", "FloorLevel": "G", "layer": "LevelG_Nodes_Final" }, "geometry": { "type": "Point", "coordinates": [ 103.65453009818421, 1.513840001546174 ] } },
{ "type": "Feature", "properties": { "nodeID": "n_G_0029_E", "Type": "Escalator", "FloorLevel": "G", "layer": "LevelG_Nodes_Final" }, "geometry": { "type": "Point", "coordinates": [ 103.654638850119142, 1.513924241776052 ] } },
{ "type": "Feature", "properties": { "nodeID": "n_G_0031_E", "Type": "Escalator", "FloorLevel": "G", "layer": "LevelG_Nodes_Final" }, "geometry": { "type": "Point", "coordinates": [ 103.654343509435861, 1.514007763851633 ] } },
{ "type": "Feature", "properties": { "nodeID": "n_G_0032_E", "Type": "Escalator", "FloorLevel": "G", "layer": "LevelG_Nodes_Final" }, "geometry": { "type": "Point", "coordinates": [ 103.654334037316261, 1.513997743658056 ] } },
{ "type": "Feature", "properties": { "nodeID": "n_G_0033_E", "Type": "Escalator", "FloorLevel": "G", "layer": "LevelG_Nodes_Final" }, "geometry": { "type": "Point", "coordinates": [ 103.654325179966619, 1.513988373803336 ] } },
{ "type": "Feature", "properties": { "nodeID": "n_G_0034_E", "Type": "Escalator", "FloorLevel": "G", "layer": "LevelG_Nodes_Final" }, "geometry": { "type": "Point", "coordinates": [ 103.654353040508866, 1.514017846411236 ] } },
{ "type": "Feature", "properties": { "nodeID": "n_G_0038_E", "Type": "Escalator", "FloorLevel": "G", "layer": "LevelG_Nodes_Final" }, "geometry": { "type": "Point", "coordinates": [ 103.654873650402862, 1.51431098116453 ] } },
{ "type": "Feature", "properties": { "nodeID": "n_G_0039_E", "Type": "Escalator", "FloorLevel": "G", "layer": "LevelG_Nodes_Final" }, "geometry": { "type": "Point", "coordinates": [ 103.654775770044381, 1.51440540362294 ] } }
]
}
